CALSPHERE 1             
1 00900U 64063C   24080.43790672  .00001064  00000+0  11065-2 0  9995
2 00900  90.1992  53.4838 0023513 247.7024 236.7183 13.74845626958831
CALSPHERE 2             
1 00902U 64063E   24080.43950295  .00000110  00000+0  15175-3 0  9994
2 00902  90.2128  57.0270 0020543  84.8778  74.4163 13.52786304745563
LCS 1                   
1 01361U 65034C   24080.13903638  .00000024  00000+0  20178-2 0  9991
2 01361  32.1446 321.7335 0004733  61.6878 298.4096  9.89304759128777
TEMPSAT 1               
1 01512U 65065E   24080.39397333  .00000046  00000+0  74346-4 0  9992
2 01512  89.9515 214.4530 0070521  29.3462  25.6198 13.33506841850927
CALSPHERE 4A            
1 01520U 65065H   24080.60246861  .00000160  00000+0  29304-3 0  9994
2 01520  89.9503 128.5088 0067151 252.2441 237.8737 13.36041623853390
OPS 5712 (P/L 160)      
1 02826U 67053A   24080.53673979  .00010601  00000+0  23313-2 0  9993
2 02826  69.9248 215.6163 0005345 200.9935 159.0984 14.57678506946034